{
  "norad_id": 66250,
  "name": "STARLINK-35338",
  "history": [
    {
      "epoch": "2026-03-28T19:19:03.347040Z",
      "apogee_km": 475.74138282491003,
      "perigee_km": 474.5816676484683,
      "latitude_deg": -2.0037603243574128e-07,
      "longitude_deg": 79.08517246769803,
      "height_km": 476.4023560931332,
      "semi_major_axis_km": 6853.298525236689,
      "eccentricity": 8.461e-05,
      "inclination_deg": 53.1557,
      "raan_deg": 195.0692,
      "arg_perigee_deg": 126.1962,
      "mean_anomaly_deg": 233.9117,
      "mean_motion_rev_day": 15.30217933
    }
  ]
}